{
  "type": "FeatureCollection",
  "features": [
    {
      "type": "Feature",
      "properties": {
        "norad_id": 28899,
        "name": "INMARSAT 4-F2 (SOUTHPAN/PRN 122)",
        "group": "gnss",
        "lat": 4.642332814939247,
        "lon": 116.27552737732303,
        "alt_km": 35796.49420587845,
        "timestamp": "2025-12-09T16:56:36.817011+00:00",
        "meta_object_name": "INMARSAT 4-F2 (SOUTHPAN/PRN 122)",
        "meta_object_id": "2005-044A",
        "meta_epoch": "2025-12-08T22:50:48.373728",
        "meta_mean_motion": 1.00272355,
        "meta_eccentricity": 0.0003199,
        "meta_inclination": 4.8474,
        "meta_ra_of_asc_node": 43.6797,
        "meta_arg_of_pericenter": 217.6913,
        "meta_mean_anomaly": 302.7876,
        "meta_ephemeris_type": 0,
        "meta_classification_type": "U",
        "meta_norad_cat_id": 28899,
        "meta_element_set_no": 999,
        "meta_rev_at_epoch": 7361,
        "meta_bstar": 0,
        "meta_mean_motion_dot": -2.6e-06,
        "meta_mean_motion_ddot": 0,
        "tle_line1": "1 28899U 05044A   25342.95194877 -.00000260  00000+0  00000+0 0  9992",
        "tle_line2": "2 28899   4.8474  43.6797 0003199 217.6913 302.7876  1.00272355 73617"
      },
      "geometry": {
        "type": "Point",
        "coordinates": [
          116.27552737732303,
          4.642332814939247
        ]
      }
    },
    {
      "type": "Feature",
      "properties": {
        "norad_id": 29486,
        "name": "GPS BIIRM-2 (PRN 31)",
        "group": "gnss",
        "lat": 41.89505292096106,
        "lon": -60.63417121731314,
        "alt_km": 20092.45503345052,
        "timestamp": "2025-12-09T16:56:36.817023+00:00",
        "meta_object_name": "GPS BIIRM-2 (PRN 31)",
        "meta_object_id": "2006-042A",
        "meta_epoch": "2025-12-09T12:11:01.327200",
        "meta_mean_motion": 2.0055423,
        "meta_eccentricity": 0.0107362,
        "meta_inclination": 54.6937,
        "meta_ra_of_asc_node": 158.8689,
        "meta_arg_of_pericenter": 51.8849,
        "meta_mean_anomaly": 288.7745,
        "meta_ephemeris_type": 0,
        "meta_classification_type": "U",
        "meta_norad_cat_id": 29486,
        "meta_element_set_no": 999,
        "meta_rev_at_epoch": 14058,
        "meta_bstar": 0,
        "meta_mean_motion_dot": 6.7e-07,
        "meta_mean_motion_ddot": 0,
        "tle_line1": "1 29486U 06042A   25343.50765425  .00000067  00000+0  00000+0 0  9993",
        "tle_line2": "2 29486  54.6937 158.8689 0107362  51.8849 288.7745  2.00554230140584"
      },
      "geometry": {
        "type": "Point",
        "coordinates": [
          -60.63417121731314,
          41.89505292096106
        ]
      }
    },
    {
      "type": "Feature",
      "properties": {
        "norad_id": 29601,
        "name": "GPS BIIRM-3 (PRN 12)",
        "group": "gnss",
        "lat": -1.868608566936486,
        "lon": 42.83805108871209,
        "alt_km": 20199.6699687677,
        "timestamp": "2025-12-09T16:56:36.817036+00:00",
        "meta_object_name": "GPS BIIRM-3 (PRN 12)",
        "meta_object_id": "2006-052A",
        "meta_epoch": "2025-12-08T22:59:17.672352",
        "meta_mean_motion": 2.00573222,
        "meta_eccentricity": 0.0087721,
        "meta_inclination": 54.9712,
        "meta_ra_of_asc_node": 221.5484,
        "meta_arg_of_pericenter": 87.3994,
        "meta_mean_anomaly": 273.6864,
        "meta_ephemeris_type": 0,
        "meta_classification_type": "U",
        "meta_norad_cat_id": 29601,
        "meta_element_set_no": 999,
        "meta_rev_at_epoch": 13959,
        "meta_bstar": 0,
        "meta_mean_motion_dot": 1e-07,
        "meta_mean_motion_ddot": 0,
        "tle_line1": "1 29601U 06052A   25342.95784343  .00000010  00000+0  00000+0 0  9999",
        "tle_line2": "2 29601  54.9712 221.5484 0087721  87.3994 273.6864  2.00573222139595"
      },
      "geometry": {
        "type": "Point",
        "coordinates": [
          42.83805108871209,
          -1.868608566936486
        ]
      }
    },
    {
      "type": "Feature",
      "properties": {
        "norad_id": 32260,
        "name": "GPS BIIRM-4 (PRN 15)",
        "group": "gnss",
        "lat": -31.438753498090545,
        "lon": 61.480949529241606,
        "alt_km": 20433.205336125982,
        "timestamp": "2025-12-09T16:56:36.817048+00:00",
        "meta_object_name": "GPS BIIRM-4 (PRN 15)",
        "meta_object_id": "2007-047A",
        "meta_epoch": "2025-12-09T06:19:25.464288",
        "meta_mean_motion": 2.00564591,
        "meta_eccentricity": 0.016427,
        "meta_inclination": 53.953,
        "meta_ra_of_asc_node": 87.9021,
        "meta_arg_of_pericenter": 85.2089,
        "meta_mean_anomaly": 276.6577,
        "meta_ephemeris_type": 0,
        "meta_classification_type": "U",
        "meta_norad_cat_id": 32260,
        "meta_element_set_no": 999,
        "meta_rev_at_epoch": 13300,
        "meta_bstar": 0,
        "meta_mean_motion_dot": -1.5e-07,
        "meta_mean_motion_ddot": 0,
        "tle_line1": "1 32260U 07047A   25343.26348917 -.00000015  00000+0  00000+0 0  9993",
        "tle_line2": "2 32260  53.9530  87.9021 0164270  85.2089 276.6577  2.00564591133008"
      },
      "geometry": {
        "type": "Point",
        "coordinates": [
          61.480949529241606,
          -31.438753498090545
        ]
      }
    },
    {
      "type": "Feature",
      "properties": {
        "norad_id": 32275,
        "name": "COSMOS 2433 (720)",
        "group": "gnss",
        "lat": -61.978940730923775,
        "lon": -95.84981295453387,
        "alt_km": 19124.16458598021,
        "timestamp": "2025-12-09T16:56:36.817061+00:00",
        "meta_object_name": "COSMOS 2433 (720)",
        "meta_object_id": "2007-052A",
        "meta_epoch": "2025-12-09T08:02:51.611712",
        "meta_mean_motion": 2.131038,
        "meta_eccentricity": 0.0005594,
        "meta_inclination": 65.6851,
        "meta_ra_of_asc_node": 322.3203,
        "meta_arg_of_pericenter": 252.1306,
        "meta_mean_anomaly": 107.8063,
        "meta_ephemeris_type": 0,
        "meta_classification_type": "U",
        "meta_norad_cat_id": 32275,
        "meta_element_set_no": 999,
        "meta_rev_at_epoch": 14101,
        "meta_bstar": 0,
        "meta_mean_motion_dot": -4.9e-07,
        "meta_mean_motion_ddot": 0,
        "tle_line1": "1 32275U 07052A   25343.33531958 -.00000049  00000+0  00000+0 0  9999",
        "tle_line2": "2 32275  65.6851 322.3203 0005594 252.1306 107.8063  2.13103800141019"
      },
      "geometry": {
        "type": "Point",
        "coordinates": [
          -95.84981295453387,
          -61.978940730923775
        ]
      }
    },
    {
      "type": "Feature",
      "properties": {
        "norad_id": 32276,
        "name": "COSMOS 2432 (719)",
        "group": "gnss",
        "lat": -43.205380792946336,
        "lon": 167.52515249557578,
        "alt_km": 19131.39923488275,
        "timestamp": "2025-12-09T16:56:36.817073+00:00",
        "meta_object_name": "COSMOS 2432 (719)",
        "meta_object_id": "2007-052B",
        "meta_epoch": "2025-12-09T13:28:48.375264",
        "meta_mean_motion": 2.13102958,
        "meta_eccentricity": 0.0011251,
        "meta_inclination": 65.7007,
        "meta_ra_of_asc_node": 322.4368,
        "meta_arg_of_pericenter": 311.4097,
        "meta_mean_anomaly": 166.6519,
        "meta_ephemeris_type": 0,
        "meta_classification_type": "U",
        "meta_norad_cat_id": 32276,
        "meta_element_set_no": 999,
        "meta_rev_at_epoch": 14104,
        "meta_bstar": 0,
        "meta_mean_motion_dot": -4.9e-07,
        "meta_mean_motion_ddot": 0,
        "tle_line1": "1 32276U 07052B   25343.56167101 -.00000049  00000+0  00000+0 0  9990",
        "tle_line2": "2 32276  65.7007 322.4368 0011251 311.4097 166.6519  2.13102958141045"
      },
      "geometry": {
        "type": "Point",
        "coordinates": [
          167.52515249557578,
          -43.205380792946336
        ]
      }
    },
    {
      "type": "Feature",
      "properties": {
        "norad_id": 32384,
        "name": "GPS BIIRM-5 (PRN 29)",
        "group": "gnss",
        "lat": 55.20080293696004,
        "lon": 11.976208851149641,
        "alt_km": 20148.488550707818,
        "timestamp": "2025-12-09T16:56:36.817085+00:00",
        "meta_object_name": "GPS BIIRM-5 (PRN 29)",
        "meta_object_id": "2007-062A",
        "meta_epoch": "2025-12-09T04:27:19.804896",
        "meta_mean_motion": 2.00577042,
        "meta_eccentricity": 0.00322219,
        "meta_inclination": 55.1854,
        "meta_ra_of_asc_node": 281.7885,
        "meta_arg_of_pericenter": 162.5723,
        "meta_mean_anomaly": 272.1574,
        "meta_ephemeris_type": 0,
        "meta_classification_type": "U",
        "meta_norad_cat_id": 32384,
        "meta_element_set_no": 999,
        "meta_rev_at_epoch": 13170,
        "meta_bstar": 0,
        "meta_mean_motion_dot": -5.2e-07,
        "meta_mean_motion_ddot": 0,
        "tle_line1": "1 32384U 07062A   25343.18564589 -.00000052  00000+0  00000+0 0  9994",
        "tle_line2": "2 32384  55.1854 281.7885 0032221 162.5723 272.1574  2.00577042131702"
      },
      "geometry": {
        "type": "Point",
        "coordinates": [
          11.976208851149641,
          55.20080293696004
        ]
      }
    }
  ]
}